APRIZESAT 2             
1 28366U 04025A   26193.26403838  .00000115  00000+0  48689-4 0  9996
2 28366  98.1037 357.8275 0105732 173.6918 186.5630 14.38046788155240
SAUDICOMSAT 1           
1 28369U 04025D   26192.48970258  .00000175  00000+0  51431-4 0  9992
2 28369  98.5776 203.2774 0031139 310.6222  49.2266 14.55491991167663
SAUDICOMSAT 2           
1 28370U 04025E   26193.58849148  .00000099  00000+0  37673-4 0  9996
2 28370  98.6642 206.5529 0055468 181.5786 178.5241 14.49993601163789
APRIZESAT 1             
1 28372U 04025G   26193.58870941  .00000128  00000+0  43407-4 0  9998
2 28372  98.6309 205.0058 0045808  78.3847 282.2484 14.51791110165597
NANOSAT-1               
1 28493U 04049B   26193.31628974  .00000527  00000+0  76572-4 0  9998
2 28493  98.2305 330.5965 0003558 193.7592 166.3522 14.80207529159168
SAUDICOMSAT 7           
1 31119U 07012C   26193.50103715  .00000251  00000+0  54034-4 0  9995
2 31119  98.3796 168.1531 0056877 116.5412 244.1637 14.66134966 26143
SAUDICOMSAT 6           
1 31121U 07012E   26193.40308984  .00000188  00000+0  46049-4 0  9998
2 31121  98.4115 161.3915 0070436 247.9543 111.4166 14.62583181 23877
SAUDICOMSAT 5           
1 31124U 07012H   26193.43901492  .00000353  00000+0  69510-4 0  9999
2 31124  98.3508 168.8316 0048388  47.3502 313.1765 14.68190058 27301
SAUDICOMSAT 3           
1 31125U 07012J   26193.35569304  .00000419  00000+0  76803-4 0  9999
2 31125  98.3162 169.2932 0038451 334.3633  25.5665 14.70747190 28527
SAUDICOMSAT 4           
1 31127U 07012L   26193.43395215  .00000206  00000+0  47564-4 0  9994
2 31127  98.4002 166.5217 0063356 178.3548 181.7875 14.64534007 24980
APRIZESAT 4             
1 35684U 09041D   26193.00425065  .00000360  00000+0  49734-4 0  9992
2 35684  98.1404 268.8187 0042069 240.1403 119.5627 14.83911189915044
APRIZESAT 3             
1 35686U 09041F   26193.24329514  .00001052  00000+0  95583-4 0  9994
2 35686  98.2092 347.6723 0060978 345.6704  14.2784 14.96304910920128
S-NET D                 
1 43186U 18014G   26193.53066398  .00002764  00000+0  14367-3 0  9999
2 43186  97.5339  98.1642 0006395 296.4426  63.6151 15.16903291462603
S-NET B                 
1 43187U 18014H   26193.14681325  .00003058  00000+0  15871-3 0  9998
2 43187  97.5346  97.7699 0006968 292.1595  67.8899 15.16870908462541
S-NET A                 
1 43188U 18014J   26193.59536666  .00002690  00000+0  13988-3 0  9993
2 43188  97.5355  98.4295 0006864 290.9551  69.0948 15.16911932462615
S-NET C                 
1 43189U 18014K   26193.15082168  .00002892  00000+0  15033-3 0  9996
2 43189  97.5373  98.0660 0008144 283.2635  76.7689 15.16861734461091
SALSAT                  
1 46495U 20068K   26192.54062004  .00004447  00000+0  15528-3 0  9997
2 46495  97.8855 197.0941 0008823 206.5203 153.5586 15.30139435319080
OOV-CUBE (TUBSAT-30)    
1 60240U 24128F   26193.40605557  .00001093  00000+0  95469-4 0  9991
2 60240  61.9937 137.6292 0041488 139.4098 221.0100 15.02866804109903
LPNTSAT-001 (IOD-1)     
1 68408U 26065A   26193.57698871  .00001303  00000+0  66030-4 0  9992
2 68408  97.3989  73.5475 0014621 276.6122  83.3448 15.18660920 16111
CHUANG XIN 26 (CX-26)   
1 69972U 26158A   26192.48090097 -.00000088  00000+0  30360-4 0  9994
2 69972  49.9853 296.0945 0004896 288.4346  71.6034 14.25145244   171
